IRIDIUM 155             
1 43573U 18061E   23094.30233971  .00000127  00000+0  38140-4 0  9993
2 43573  86.4041 185.5965 0002037 103.1388 257.0035 14.34219168245677
IRIDIUM 154             
1 43574U 18061F   23095.32983963  .00000468  00000+0  16001-3 0  9999
2 43574  86.4044 185.2448 0002254  90.6252 269.5202 14.34221322245876
IRIDIUM 163             
1 43575U 18061G   23095.31082633  .00000493  00000+0  16881-3 0  9997
2 43575  86.4043 185.2044 0002431  96.8955 263.2518 14.34214416245847
IRIDIUM 156             
1 43576U 18061H   23095.28545709  .00000504  00000+0  17299-3 0  9999
2 43576  86.4043 185.2207 0002348 102.0108 258.1351 14.34216643245837
IRIDIUM 164             
1 43577U 18061J   23094.77804346  .00000028  00000+0  31040-5 0  9991
2 43577  86.4045 185.4545 0002371  93.9289 266.2178 14.34213951245804
IRIDIUM 159             
1 43578U 18061K   23094.81608553  .00000479  00000+0  16390-3 0  9998
2 43578  86.4042 185.4003 0002141  94.6117 265.5323 14.34221617245772
IRIDIUM 180             
1 43922U 19002A   23095.58304904  .00000208  00000+0  67348-4 0  9995
2 43922  86.3933 122.0315 0002410  89.8983 270.2489 14.34215268221496
IRIDIUM 176             
1 43923U 19002B   23095.59022299  .00000550  00000+0  83378-4 0  9992
2 43923  86.6065 122.0697 0002386  98.1662 261.9826 14.72237096227312
IRIDIUM 168             
1 43924U 19002C   23095.57671380  .00000203  00000+0  65486-4 0  9997
2 43924  86.3935 122.0783 0002286  89.0482 271.0976 14.34215276221473
IRIDIUM 173             
1 43925U 19002D   23095.56402640  .00000216  00000+0  70225-4 0  9999
2 43925  86.3932 122.0203 0002378  88.1828 271.9640 14.34215806221458
IRIDIUM 169             
1 43926U 19002E   23095.57617589  .00000490  00000+0  15352-3 0  9994
2 43926  86.4256 153.6055 0002612 196.3971 163.7144 14.38617868222216
IRIDIUM 172             
1 43927U 19002F   23095.55767841  .00000233  00000+0  76092-4 0  9994
2 43927  86.3931 122.0275 0002273  90.3213 269.8243 14.34214508221469
IRIDIUM 175             
1 43928U 19002G   23095.03994676  .00000628  00000+0  95568-4 0  9993
2 43928  86.1476 120.2479 0002553  97.3630 262.7877 14.72264049227221
IRIDIUM 171             
1 43929U 19002H   23095.53865506  .00000214  00000+0  69280-4 0  9991
2 43929  86.3942 122.2120 0002348  88.1042 272.0422 14.34215835221450
IRIDIUM 170             
1 43930U 19002J   23095.59638713  .00000519  00000+0  78437-4 0  9999
2 43930  86.6065 122.0724 0002390  94.9996 265.1494 14.72238727227320
IRIDIUM 167             
1 43931U 19002K   23095.60207121  .00000207  00000+0  66687-4 0  9995
2 43931  86.3932 122.0209 0002465  87.2670 272.8808 14.34217919221467
